NORAD_CAT_ID,OBJECT_NAME,OBJECT_TYPE,EPOCH,MEAN_MOTION,ECCENTRICITY,INCLINATION,RA_OF_ASC_NODE,ARG_OF_PERICENTER,MEAN_ANOMALY,BSTAR,MEAN_MOTION_DOT,MEAN_MOTION_DDOT,TLE_LINE0,TLE_LINE1,TLE_LINE2,SEMIMAJOR_AXIS,PERIOD,APOGEE,PERIGEE,DECAYED
51986.0,STARLINK-3645,PAYLOAD,2023-01-06 21:21:14,15.08849179,0.0002858,53.215,196.7002,23.0796,337.0324,0.00035194,5.319e-05,0.0,0 STARLINK-3645,1 51986U 22025AG  23006.88975506  .00005319  00000-0  35194-3 0  9992,2 51986  53.2150 196.7002 0002858  23.0796 337.0324 15.08849179 46275,6917.852,95.437,541.694,537.74,0.0
51986.0,STARLINK-3645,PAYLOAD,2023-01-06 22:56:37,15.08850425,0.0002858,53.215,196.4028,23.3439,336.7683,0.00036016,5.45e-05,0.0,0 STARLINK-3645,1 51986U 22025AG  23006.95599444  .00005450  00000-0  36016-3 0  9993,2 51986  53.2150 196.4028 0002858  23.3439 336.7683 15.08850425 46288,6917.849,95.437,541.691,537.736,0.0
51986.0,STARLINK-3645,PAYLOAD,2023-01-07 10:04:19,15.08857132,0.0002881,53.2147,194.3212,25.1738,334.9394,0.00038514,5.849e-05,0.0,0 STARLINK-3645,1 51986U 22025AG  23007.41966970  .00005849  00000-0  38514-3 0  9994,2 51986  53.2147 194.3212 0002881  25.1738 334.9394 15.08857132 47444,6917.828,95.436,541.686,537.7,0.0
51986.0,STARLINK-3645,PAYLOAD,2023-01-07 14:50:29,15.08846884,0.0003023,53.2151,193.4284,26.4523,333.6623,6.8839e-05,8.07e-06,0.0,0 STARLINK-3645,1 51986U 22025AG  23007.61839183  .00000807  00000-0  68839-4 0  9994,2 51986  53.2151 193.4284 0003023  26.4523 333.6623 15.08846884 47479,6917.859,95.437,541.816,537.633,0.0
51986.0,STARLINK-3645,PAYLOAD,2023-01-07 21:12:01,15.08844257,0.000295,53.2152,192.2382,25.5351,334.5786,3.4498e-05,2.61e-06,0.0,0 STARLINK-3645,1 51986U 22025AG  23007.88335168  .00000261  00000-0  34498-4 0  9995,2 51986  53.2152 192.2382 0002950  25.5351 334.5786 15.08844257 46429,6917.866999999998,95.437,541.773,537.692,0.0
51986.0,STARLINK-3645,PAYLOAD,2023-01-08 11:30:29,15.08847275,0.0002901999999999,53.2148,189.5633,25.7271,334.3865,0.0001147,1.538e-05,0.0,0 STARLINK-3645,1 51986U 22025AG  23008.47950930  .00001538  00000-0  11470-3 0  9993,2 51986  53.2148 189.5633 0002902  25.7271 334.3865 15.08847275 46511,6917.858,95.437,541.731,537.716,0.0
51986.0,STARLINK-3645,PAYLOAD,2023-01-08 21:02:48,15.08852273,0.0002937,53.2149,187.779,26.2547,333.8594,0.00027377,4.073e-05,0.0,0 STARLINK-3645,1 51986U 22025AG  23008.87694705  .00004073  00000-0  27377-3 0  9992,2 51986  53.2149 187.7790 0002937  26.2547 333.8594 15.08852273 46579,6917.843000000002,95.437,541.74,537.6759999999998,0.0
51986.0,STARLINK-3645,PAYLOAD,2023-01-09 11:21:16,15.08843377,0.0002898,53.2152,185.1026,26.1765,333.9373,5.2282e-05,5.44e-06,0.0,0 STARLINK-3645,1 51986U 22025AG  23009.47310658  .00000544  00000-0  52282-4 0  9994,2 51986  53.2152 185.1026 0002898  26.1765 333.9373 15.08843377 47756,6917.87,95.437,541.74,537.73,0.0
51986.0,STARLINK-3645,PAYLOAD,2023-01-09 17:42:48,15.08842378,0.0002883,53.2153,183.9128,26.7466,333.3674,2.3675e-05,8.8e-07,0.0,0 STARLINK-3645,1 51986U 22025AG  23009.73806677  .00000088  00000-0  23675-4 0  9991,2 51986  53.2153 183.9128 0002883  26.7466 333.3674 15.08842378 46706,6917.873000000001,95.437,541.7330000000002,537.744,0.0
51986.0,STARLINK-3645,PAYLOAD,2023-01-10 12:47:26,15.08842887,0.0003042,53.2152,180.3443,28.6861,331.4298,5.8433e-05,6.42e-06,0.0,0 STARLINK-3645,1 51986U 22025AG  23010.53294605  .00000642  00000-0  58433-4 0  9999,2 51986  53.2152 180.3443 0003042  28.6861 331.4298 15.08842887 46823,6917.871999999999,95.437,541.841,537.632,0.0
51986.0,STARLINK-3645,PAYLOAD,2023-01-10 17:33:35,15.08842158,0.0003034,53.2153,179.4521,29.2022,330.9139,5.5055e-05,5.88e-06,0.0,0 STARLINK-3645,1 51986U 22025AG  23010.73166632  .00000588  00000-0  55055-4 0  9995,2 51986  53.2153 179.4521 0003034  29.2022 330.9139 15.08842158 47940,6917.874,95.437,541.8380000000002,537.64,0.0
51986.0,STARLINK-3645,PAYLOAD,2023-01-11 09:27:27,15.08842505,0.0003106,53.2135,176.4788,35.4419,324.6779,0.00010829,1.435e-05,0.0,0 STARLINK-3645,1 51986U 22025AG  23011.39406773  .00001435  00000-0  10829-3 0  9992,2 51986  53.2135 176.4788 0003106  35.4419 324.6779 15.08842505 46957,6917.873000000001,95.437,541.886,537.589,0.0
51986.0,STARLINK-3645,PAYLOAD,2023-01-11 17:24:23,15.0882293,0.0002901,53.2159,174.9922,25.4323,334.6811,-0.00017824,-3.123e-05,0.0,0 STARLINK-3645,1 51986U 22025AG  23011.72527611 -.00003123  00000-0 -17824-3 0  9994,2 51986  53.2159 174.9922 0002901  25.4323 334.6811 15.08822930 48096,6917.933000000001,95.439,541.804,537.7909999999998,0.0
51986.0,STARLINK-3645,PAYLOAD,2023-01-11 20:35:10,15.08822874,0.0003017,53.2156,174.3975,25.7407,334.3734,-0.00012494,-2.276e-05,0.0,0 STARLINK-3645,1 51986U 22025AG  23011.85775850 -.00002276  00000-0 -12494-3 0  9994,2 51986  53.2156 174.3975 0003017  25.7407 334.3734 15.08822874 47020,6917.933000000001,95.439,541.885,537.711,0.0
51986.0,STARLINK-3645,PAYLOAD,2023-01-12 17:15:11,15.08839851,0.0003039,53.216,170.5321,26.4595,333.6552,0.00029718,4.444e-05,0.0,0 STARLINK-3645,1 51986U 22025AG  23012.71887995  .00004444  00000-0  29718-3 0  9998,2 51986  53.2160 170.5321 0003039  26.4595 333.6552 15.08839851 48246,6917.880999999999,95.438,541.8480000000002,537.644,0.0
51986.0,STARLINK-3645,PAYLOAD,2023-01-13 09:09:02,15.08847722,0.0003054,53.2162,167.56,27.2779,332.8373,0.00053882,8.3e-05,0.0,0 STARLINK-3645,1 51986U 22025AG  23013.38128208  .00008300  00000-0  53882-3 0  9991,2 51986  53.2162 167.5600 0003054  27.2779 332.8373 15.08847722 47252,6917.857,95.437,541.8340000000001,537.609,0.0
51986.0,STARLINK-3645,PAYLOAD,2023-01-13 17:05:58,15.08856958,0.0003089,53.2153,166.0733,26.8376,333.2775,0.00056517,8.722e-05,0.0,0 STARLINK-3645,1 51986U 22025AG  23013.71247742  .00008722  00000-0  56517-3 0  9999,2 51986  53.2153 166.0733 0003089  26.8376 333.2775 15.08856958 47307,6917.829000000001,95.436,541.83,537.557,0.0
51986.0,STARLINK-3645,PAYLOAD,2023-01-14 02:38:16,15.08849602,0.0003074,53.2138,164.2878,21.4292,338.6828,0.00015971,2.255e-05,0.0,0 STARLINK-3645,1 51986U 22025AG  23014.10991591  .00002255  00000-0  15971-3 0  9995,2 51986  53.2138 164.2878 0003074  21.4292 338.6828 15.08849602 48455,6917.851,95.437,541.8430000000001,537.589,0.0
51986.0,STARLINK-3645,PAYLOAD,2023-01-14 10:35:12,15.08839984,0.0002835,53.2161,162.8025,34.1289,325.9885,5.0941e-07,-2.8e-06,0.0,0 STARLINK-3645,1 51986U 22025AG  23014.44112058 -.00000280  00000-0  50941-6 0  9991,2 51986  53.2161 162.8025 0002835  34.1289 325.9885 15.08839984 48500,6917.88,95.438,541.707,537.784,0.0
51986.0,STARLINK-3645,PAYLOAD,2023-01-15 13:36:46,15.08839845,0.0002733,53.2136,157.7463,35.8977,324.2199,0.00035618,5.385e-05,0.0,0 STARLINK-3645,1 51986U 22025AG  23015.56720331  .00005385  00000-0  35618-3 0  9995,2 51986  53.2136 157.7463 0002733  35.8977 324.2199 15.08839845 47583,6917.880999999999,95.438,541.637,537.855,0.0
51986.0,STARLINK-3645,PAYLOAD,2023-01-15 16:47:32,15.08843386,0.0002901,53.214,157.1514,37.5018,322.6176,0.00026257,3.893e-05,0.0,0 STARLINK-3645,1 51986U 22025AG  23015.69968245  .00003893  00000-0  26257-3 0  9998,2 51986  53.2140 157.1514 0002901  37.5018 322.6176 15.08843386 48696,6917.87,95.437,541.742,537.7280000000001,0.0
51986.0,STARLINK-3645,PAYLOAD,2023-01-16 13:27:33,15.08840591,0.0002844,53.2142,153.2859,44.6204,315.5016,0.00025075,3.705e-05,0.0,0 STARLINK-3645,1 51986U 22025AG  23016.56080545  .00003705  00000-0  25075-3 0  9992,2 51986  53.2142 153.2859 0002844  44.6204 315.5016 15.08840591 47732,6917.879,95.438,541.711,537.776,0.0
51986.0,STARLINK-3645,PAYLOAD,2023-01-16 18:13:42,15.08846046,0.0002953,53.2138,152.3923,47.502,312.6221,0.00032841,4.943e-05,0.0,0 STARLINK-3645,1 51986U 22025AG  23016.75952370  .00004943  00000-0  32841-3 0  9991,2 51986  53.2138 152.3923 0002953  47.5020 312.6221 15.08846046 48859,6917.861999999999,95.437,541.77,537.684,0.0
51986.0,STARLINK-3645,PAYLOAD,2023-01-17 02:10:38,15.08836287,0.0002613,53.2138,150.9058,44.7602,315.3601,7.5913e-05,9.2e-06,0.0,0 STARLINK-3645,1 51986U 22025AG  23017.09072671  .00000920  00000-0  75913-4 0  9995,2 51986  53.2138 150.9058 0002613  44.7602 315.3601 15.08836287 48904,6917.892,95.438,541.564,537.9490000000001,0.0
51986.0,STARLINK-3645,PAYLOAD,2023-01-17 14:53:44,15.08839357,0.0002894,53.2128,148.5288,48.2299,311.894,0.00014787,2.066e-05,0.0,0 STARLINK-3645,1 51986U 22025AG  23017.62064904  .00002066  00000-0  14787-3 0  9998,2 51986  53.2128 148.5288 0002894  48.2299 311.8940 15.08839357 47898,6917.882,95.438,541.749,537.745,0.0
51986.0,STARLINK-3645,PAYLOAD,2023-01-18 09:58:21,15.08844668,0.0002494,53.213,144.9591,48.3167,311.8038,0.00036929,5.595e-05,0.0,0 STARLINK-3645,1 51986U 22025AG  23018.41553021  .00005595  00000-0  36929-3 0  9991,2 51986  53.2130 144.9591 0002494  48.3167 311.8038 15.08844668 49104,6917.866,95.437,541.456,538.006,0.0
51986.0,STARLINK-3645,PAYLOAD,2023-01-18 14:44:30,15.08856376,0.0002293,53.2132,144.0665,45.8216,314.2964,0.0006399,9.915e-05,0.0,0 STARLINK-3645,1 51986U 22025AG  23018.61424640  .00009915  00000-0  63990-3 0  9995,2 51986  53.2132 144.0665 0002293  45.8216 314.2964 15.08856376 48049,6917.83,95.437,541.2819999999999,538.109,0.0
51986.0,STARLINK-3645,PAYLOAD,2023-01-19 08:13:45,15.08841448,0.0001966,53.2134,140.7952,53.5139,306.6034,0.00017789,2.544e-05,0.0,0 STARLINK-3645,1 51986U 22025AG  23019.34289094  .00002544  00000-0  17789-3 0  9994,2 51986  53.2134 140.7952 0001966  53.5139 306.6034 15.08841448 49249,6917.876,95.437,541.101,538.381,0.0
51986.0,STARLINK-3645,PAYLOAD,2023-01-19 12:59:55,15.0884413,0.0001906,53.2133,139.9026,55.6508,304.4664,0.00035766,5.409e-05,0.0,0 STARLINK-3645,1 51986U 22025AG  23019.54161018  .00005409  00000-0  35766-3 0  9999,2 51986  53.2133 139.9026 0001906  55.6508 304.4664 15.08844130 48185,6917.868,95.437,541.0509999999999,538.414,0.0
